#cP2023  3  8  0  0  0.00000000      96 ORBIT IGS20 HLM  IGS
## 2252 259200.00000000   900.00000000 60011 0.0000000000000
+   32   G01G02G03G04G05G06G07G08G09G10G11G12G13G14G15G16G17
+        G18G19G20G21G22G23G24G25G26G27G28G29G30G31G32  0  0
+          0  0  0  0  0  0  0  0  0  0  0  0  0  0  0  0  0
+          0  0  0  0  0  0  0  0  0  0  0  0  0  0  0  0  0
+          0  0  0  0  0  0  0  0  0  0  0  0  0  0  0  0  0
++         2  2  2  3  2  2  2  2  2  2  2  2  2  2  2  2  2
++         2  2  2  2  3  2  2  2  2  2  3  2  2  2  2  0  0
++         0  0  0  0  0  0  0  0  0  0  0  0  0  0  0  0  0
++         0  0  0  0  0  0  0  0  0  0  0  0  0  0  0  0  0
++         0  0  0  0  0  0  0  0  0  0  0  0  0  0  0  0  0
%c G  cc GPS ccc cccc cccc cccc cccc ccccc ccccc ccccc ccccc
%c cc cc ccc ccc cccc cccc cccc cccc ccccc ccccc ccccc ccccc
%f  1.2500000  1.025000000  0.00000000000  0.000000000000000
%f  0.0000000  0.000000000  0.00000000000  0.000000000000000
%i    0    0    0    0      0      0      0      0         0
%i    0    0    0    0      0      0      0      0         0
/* RAPID ORBIT COMBINATION FROM WEIGHTED AVERAGE OF:        
/* cod emr esa gfz grg jpl ngs sio usn whu                  
/* REFERENCED TO IGS TIME (IGST) AND TO WEIGHTED MEAN POLE: 
/* PCV:IGS20_2233 OL/AL:FES2014b NONE     Y  ORB:CMB CLK:CMB
*  2023  3  8 17 15  0.00000000
PG01  12722.908032 -21567.496355  -8611.596707    204.839697  5  4  8 112       
PG02  -8301.411427  23069.921531  11130.588162   -615.806529  8 10  5  96       
PG03   6120.244750 -13806.255289 -21962.984679   -353.100960  6  7  5 105       
PG04   1837.613444 -23766.788808 -11587.150830    -11.636623  6 12  6  65       
PG05 -21285.927097   6401.782635  14457.443936   -118.692004  4  7  8 100       
PG06 -16053.842078  -2970.241056 -20904.627046    579.594201  6  7  4 109       
PG07     33.487630 -19363.471600  18398.434697    227.135943  4  8  4  96       
PG08   9545.174886 -14787.031191  19707.379581   -111.974077  5  6  7 105       
PG09  -7310.349794 -25459.116022  -1663.607987   -204.560463  5  7  5  96       
PG10  22305.442454  11453.027491   9396.859579    -27.718762  3  4  6 106       
PG11 -21610.101119   9164.495445 -12387.697553   -124.442494  4  9  4  88       
PG12  -9146.324286  12871.469065 -21625.311741   -349.074575  5  6  3 104       
PG13 -13695.698676   7115.736990  21416.523037    487.386471  3  8  2 104       
PG14 -20024.599184 -13495.931777  11215.265015     -9.244491  4  5  6 105       
PG15  -7746.042622  16409.593845  18855.622249     19.780106  5  7    104       
PG16  23392.643396  -1665.706924  12592.313456   -516.523198  4  5  7  88       
PG17 -12719.811961 -20176.101690 -11149.338649    704.339350  3  7  5  89       
PG18   2842.690245  16931.077360  20227.724119   -171.058691     8  5 106       
PG19 -15305.874472 -11282.511246 -18887.243042    287.346236  7  8  8  92       
PG20 -25972.483879   1934.347727   4657.513717    446.268729  4  9  7  99       
PG21  16901.431937 -19853.881040   1714.372290    154.288342  4  7  6 101       
PG22  15699.351404   7624.386676 -19629.689803    441.334793  7 10  5  67       
PG23  12631.790899  14967.081115  18012.706048      9.561358  4  7  5  90       
PG24 -13769.817573  22203.586111  -3630.189896   -103.541958  4  5  5  63       
PG25   2661.823990  16060.398419 -21343.720583    426.061463  6  6  6 112       
PG26  26386.029558   4381.553734   -324.605325    241.914236  5  5  7  86       
PG27  14750.594398  -2777.785192  21688.752628     85.608287  3  4  6 109       
PG28  15302.189031   4850.995223 -21189.675943     37.288526  9  7  7 122       
PG29   2678.769229  25954.934791  -4772.305406   -589.862066  4  9  3  89       
PG30 -11530.108886 -10801.321514  21447.601724   -527.691379  6  4  5  90       
PG31  18398.184947    770.334083 -19473.151662   -211.112274  4  6  6 100       
PG32  15279.566856  17236.136548 -13229.261479   -417.611511  3  5  4  93       
*  2023  3  8 17 30  0.00000000
PG01  13387.778759 -22038.149841  -5837.982932    204.836237  4  4  8 119       
PG02  -9061.913571  23802.048204   8576.012124   -615.804012  8 10  5  95       
PG03   8523.775635 -13306.911879 -21451.101231   -353.095510  5  7  5  94       
PG04   2471.576686 -22430.948106 -13908.484001    -11.628897  5 11  6  37       
PG05 -22788.885845   5992.785381  12202.160771   -118.693375  4  7  8 104       
PG06 -14477.196116  -4835.552974 -21682.112465    579.597101  6  7  5 105       
PG07   1450.382689 -20718.292970  16706.229847    227.128856  4  9  3  90       
PG08  10473.440728 -12639.860372  20735.752720   -111.975152  5  6  8 108       
PG09  -6937.382412 -25230.498372  -4483.599731   -204.553788  5  6  4 113       
PG10  21112.744158  11389.285265  11910.568915    -27.720526  3  4  5 110       
PG11 -20680.128146   7911.910808 -14635.648631   -124.452524  4  9  3 100       
PG12 -11426.400274  12205.207399 -20896.962503   -349.079025  5  6  3 107       
PG13 -14223.411707   4664.584867  21758.721274    487.392120  3  8  2 107       
PG14 -18596.223992 -13408.491743  13528.838787     -9.235620  4  5  6 115       
PG15  -8937.968255  14408.307455  19932.941536     19.783123  5  7    107       
PG16  24621.318404  -1125.962715  10173.420728   -516.521343  3  5  7  94       
PG17 -12840.378423 -21374.186277  -8571.433161    704.341431  3  7  5 100       
PG18   1270.124096  18531.043669  18931.220440   -171.073286  1  9  5  99       
PG19 -15660.176834 -13266.891124 -17238.100041    287.350817  6  8  8  80       
PG20 -26337.243082   1619.241373   1850.458397    446.266739  4  9  7 106       
PG21  16973.786567 -19423.339181   4591.320939    154.288379  4  7  6 107       
PG22  16144.382119   9832.096719 -18285.565908    441.341501  6 10  6  89       
PG23  10503.818192  14735.114766  19496.478917      9.563100  4  7  5  97       
PG24 -14191.142360  22172.355816   -818.959475   -103.555870  4  5  5  62       
PG25    293.806197  15666.786110 -21777.863584    426.064281  6  6  6 115       
PG26  26167.918974   4659.421475  -3097.779984    241.914346  4  5  7  98       
PG27  15567.982234   -407.674380  21329.348070     85.600615  3  4  5 107       
PG28  13805.144101   6786.083602 -21681.991599     37.298488  9  8  7 114       
PG29   2302.156895  25331.104302  -7550.089641   -589.863870  3  9  2  97       
PG30  -9898.950901 -12606.311428  21252.282987   -527.690005  6  4  6  98       
PG31  16954.968791   2494.665366 -20576.742126   -211.113349  4  7  5 108       
PG32  15556.228636  18620.300115 -10867.039674   -417.621481  3  5  5  92       
*  2023  3  8 17 45  0.00000000
PG01  13828.751534 -22291.273852  -2962.537048    204.832545  4  5  7 124       
PG02  -9627.932344  24327.766598   5878.973285   -615.801657  8 11  6  93       
PG03  10874.754232 -12950.197760 -20573.561307   -353.090088  5  7  5 109       
PG04   3261.989233 -20896.463372 -15989.061978    -11.621179  4 11  7  80       
PG05 -24043.088844   5687.221819   9736.278315   -118.694413  3  8  8  96       
PG06 -12966.565980  -6840.843167 -22084.649022    579.600013  6  7  6 119       
PG07   2676.596249 -21982.725575  14729.587579    227.122176  4  9  3  85       
PG08  11548.526599 -10458.145313  21402.734376   -111.976835  5  5  7 101       
PG09  -6426.826651 -24733.120078  -7226.325311   -204.547126  6  6  4 103       
PG10  19649.785719  11357.674640  14224.355468    -27.722387  3  5  5 111       
PG11 -19661.860328   6428.712163 -16631.206124   -124.462479  4  9  3 105       
PG12 -13641.396833  11681.337311 -19817.098584   -349.082913  4  7  3 115       
PG13 -14884.216160   2229.869662  21720.138455    487.397626  3  8  2 106       
PG14 -16920.207696 -13353.282653  15611.146542     -9.226581  4  4  6 118       
PG15 -10272.499828  12375.547837  20651.698867     19.785998  6  7    107       
PG16  25598.954204   -716.864521   7581.433259   -516.519503  2  6  8  98       
PG17 -12927.888592 -22274.102009  -5842.705607    704.343336  2  7  5 123       
PG18   -111.712372  20084.249097  17307.542654   -171.087881  2  9  5 101       
PG19 -16065.971783 -15035.952345 -15300.282783    287.355487  6  8  8 117       
PG20 -26396.832542   1310.749032   -988.834257    446.264585  4 10  7 101       
PG21  16888.573158 -18726.802992   7386.023737    154.287782  4  6  7  98       
PG22  16649.789444  11845.206352 -16617.348376    441.348030  4  9  6 105       
PG23   8217.022082  14603.967638  20646.265167      9.564864  4  7  4  88       
PG24 -14443.381848  21888.959537   2006.690558   -103.569849  4  5  5  89       
PG25  -2121.700489  15393.087602 -21848.411229    426.067106  5  6  6 119       
PG26  25657.241254   4926.718124  -5818.822402    241.914440  4  5  7 100       
PG27  16483.964236   1853.940940  20596.634754     85.592965  4  4  4 111       
PG28  12391.502939   8825.079930 -21802.257728     37.308509  8  8  6 120       
PG29   1795.841315  24436.400187 -10197.525602   -589.865404  2  9  2 101       
PG30  -8381.225874 -14456.727066  20693.690795   -527.688632  5  5  6  91       
PG31  15536.643659   4375.838227 -21334.828344   -211.113897  4  7  5 106       
PG32  15796.469396  19730.682005  -8318.309588   -417.631408  2  5  5  84       
EOF
